{
  "type": "FeatureCollection",
  "features": [
    {
      "type": "Feature",
      "properties": {
        "norad_id": 47073,
        "name": "COSMOS 2251 DEB",
        "group": "cosmos-2251-debris",
        "lat": -61.7737418045934,
        "lon": 44.83440304456444,
        "alt_km": 771.8137318306835,
        "timestamp": "2025-12-17T23:38:07.252093+00:00",
        "meta_object_name": "COSMOS 2251 DEB",
        "meta_object_id": "1993-036BYD",
        "meta_epoch": "2025-12-15T07:13:18.345792",
        "meta_mean_motion": 14.04726954,
        "meta_eccentricity": 0.01614948,
        "meta_inclination": 74.0808,
        "meta_ra_of_asc_node": 197.3835,
        "meta_arg_of_pericenter": 235.0635,
        "meta_mean_anomaly": 123.5242,
        "meta_ephemeris_type": 0,
        "meta_classification_type": "U",
        "meta_norad_cat_id": 47073,
        "meta_element_set_no": 999,
        "meta_rev_at_epoch": 60397,
        "meta_bstar": 0.00047491463,
        "meta_mean_motion_dot": 8.3e-06,
        "meta_mean_motion_ddot": 0,
        "tle_line1": "1 47073U 93036BYD 25349.30090678  .00000830  00000+0  47491-3 0  9996",
        "tle_line2": "2 47073  74.0808 197.3835 0161494 235.0635 123.5242 14.04726954603971"
      },
      "geometry": {
        "type": "Point",
        "coordinates": [
          44.83440304456444,
          -61.7737418045934
        ]
      }
    },
    {
      "type": "Feature",
      "properties": {
        "norad_id": 47074,
        "name": "COSMOS 2251 DEB",
        "group": "cosmos-2251-debris",
        "lat": -71.23129251270738,
        "lon": 176.1745848198088,
        "alt_km": 736.3884409229349,
        "timestamp": "2025-12-17T23:38:07.252103+00:00",
        "meta_object_name": "COSMOS 2251 DEB",
        "meta_object_id": "1993-036BYE",
        "meta_epoch": "2025-12-16T13:32:26.153376",
        "meta_mean_motion": 14.35650419,
        "meta_eccentricity": 0.01449048,
        "meta_inclination": 74.0928,
        "meta_ra_of_asc_node": 301.7157,
        "meta_arg_of_pericenter": 328.8455,
        "meta_mean_anomaly": 153.2821,
        "meta_ephemeris_type": 0,
        "meta_classification_type": "U",
        "meta_norad_cat_id": 47074,
        "meta_element_set_no": 999,
        "meta_rev_at_epoch": 2737,
        "meta_bstar": 0.0011411657,
        "meta_mean_motion_dot": 3.683e-05,
        "meta_mean_motion_ddot": 0,
        "tle_line1": "1 47074U 93036BYE 25350.56419159  .00003683  00000+0  11412-2 0  9998",
        "tle_line2": "2 47074  74.0928 301.7157 0144904 328.8455 153.2821 14.35650419 27374"
      },
      "geometry": {
        "type": "Point",
        "coordinates": [
          176.1745848198088,
          -71.23129251270738
        ]
      }
    },
    {
      "type": "Feature",
      "properties": {
        "norad_id": 47116,
        "name": "COSMOS 2251 DEB",
        "group": "cosmos-2251-debris",
        "lat": -30.10222624896157,
        "lon": 59.63881452734822,
        "alt_km": 582.9297800150662,
        "timestamp": "2025-12-17T23:38:07.252112+00:00",
        "meta_object_name": "COSMOS 2251 DEB",
        "meta_object_id": "1993-036BYJ",
        "meta_epoch": "2025-12-15T10:35:15.431712",
        "meta_mean_motion": 14.98340246,
        "meta_eccentricity": 0.00212808,
        "meta_inclination": 74.0234,
        "meta_ra_of_asc_node": 235.2363,
        "meta_arg_of_pericenter": 329.1106,
        "meta_mean_anomaly": 207.4112,
        "meta_ephemeris_type": 0,
        "meta_classification_type": "U",
        "meta_norad_cat_id": 47116,
        "meta_element_set_no": 999,
        "meta_rev_at_epoch": 59551,
        "meta_bstar": 0.0012172499,
        "meta_mean_motion_dot": 0.00014561,
        "meta_mean_motion_ddot": 0,
        "tle_line1": "1 47116U 93036BYJ 25349.44115083  .00014561  00000+0  12172-2 0  9990",
        "tle_line2": "2 47116  74.0234 235.2363 0021280 329.1106 207.4112 14.98340246595513"
      },
      "geometry": {
        "type": "Point",
        "coordinates": [
          59.63881452734822,
          -30.10222624896157
        ]
      }
    },
    {
      "type": "Feature",
      "properties": {
        "norad_id": 53093,
        "name": "COSMOS 2251 DEB",
        "group": "cosmos-2251-debris",
        "lat": 48.731673693530055,
        "lon": -49.229479998303,
        "alt_km": 737.3292662858057,
        "timestamp": "2025-12-17T23:38:07.252134+00:00",
        "meta_object_name": "COSMOS 2251 DEB",
        "meta_object_id": "1993-036BYP",
        "meta_epoch": "2025-12-17T06:44:50.025984",
        "meta_mean_motion": 14.41905529,
        "meta_eccentricity": 0.00195448,
        "meta_inclination": 74.0368,
        "meta_ra_of_asc_node": 293.0371,
        "meta_arg_of_pericenter": 9.4778,
        "meta_mean_anomaly": 350.6742,
        "meta_ephemeris_type": 0,
        "meta_classification_type": "U",
        "meta_norad_cat_id": 53093,
        "meta_element_set_no": 999,
        "meta_rev_at_epoch": 17791,
        "meta_bstar": 0.00065673944,
        "meta_mean_motion_dot": 2.129e-05,
        "meta_mean_motion_ddot": 0,
        "tle_line1": "1 53093U 93036BYP 25351.28113456  .00002129  00000+0  65674-3 0  9991",
        "tle_line2": "2 53093  74.0368 293.0371 0019544   9.4778 350.6742 14.41905529177915"
      },
      "geometry": {
        "type": "Point",
        "coordinates": [
          -49.229479998303,
          48.731673693530055
        ]
      }
    }
  ]
}